{
    "links": {
        "self": "http://www.neowsapp.com/rest/v1/neo/3843570?api_key=iIulBulltgU6a56xZRHN4H3l9WmuAYTsLGpBGhQ2"
    },
    "id": "3843570",
    "neo_reference_id": "3843570",
    "name": "(2019 QF)",
    "designation": "2019 QF",
    "nasa_jpl_url": "http://ssd.jpl.nasa.gov/sbdb.cgi?sstr=3843570",
    "absolute_magnitude_h": 28.0,
    "estimated_diameter": {
        "kilometers": {
            "estimated_diameter_min": 0.0066765941,
            "estimated_diameter_max": 0.0149293183
        },
        "meters": {
            "estimated_diameter_min": 6.676594135,
            "estimated_diameter_max": 14.9293183439
        },
        "miles": {
            "estimated_diameter_min": 0.004148642,
            "estimated_diameter_max": 0.0092766455
        },
        "feet": {
            "estimated_diameter_min": 21.9048371017,
            "estimated_diameter_max": 48.9807047955
        }
    },
    "is_potentially_hazardous_asteroid": false,
    "close_approach_data": [
        {
            "close_approach_date": "2013-11-09",
            "close_approach_date_full": "2013-Nov-09 04:33",
            "epoch_date_close_approach": 1383971580000,
            "relative_velocity": {
                "kilometers_per_second": "4.3029206493",
                "kilometers_per_hour": "15490.5143375772",
                "miles_per_hour": "9625.2032004796"
            },
            "miss_distance": {
                "astronomical": "1.6514133863",
                "lunar": "642.3998072707",
                "kilometers": "247047925.079967181",
                "miles": "153508462.3627058578"
            },
            "orbiting_body": "Juptr"
        },
        {
            "close_approach_date": "2019-08-20",
            "close_approach_date_full": "2019-Aug-20 11:06",
            "epoch_date_close_approach": 1566299160000,
            "relative_velocity": {
                "kilometers_per_second": "10.6258600906",
                "kilometers_per_hour": "38253.0963262583",
                "miles_per_hour": "23768.9864367242"
            },
            "miss_distance": {
                "astronomical": "0.0061680823",
                "lunar": "2.3993840147",
                "kilometers": "922731.974064701",
                "miles": "573359.0616708338"
            },
            "orbiting_body": "Earth"
        },
        {
            "close_approach_date": "2019-08-20",
            "close_approach_date_full": "2019-Aug-20 19:06",
            "epoch_date_close_approach": 1566327960000,
            "relative_velocity": {
                "kilometers_per_second": "10.9737345952",
                "kilometers_per_hour": "39505.4445427556",
                "miles_per_hour": "24547.146916025"
            },
            "miss_distance": {
                "astronomical": "0.0068424641",
                "lunar": "2.6617185349",
                "kilometers": "1023618.054911467",
                "miles": "636046.7654415646"
            },
            "orbiting_body": "Moon"
        },
        {
            "close_approach_date": "2072-09-18",
            "close_approach_date_full": "2072-Sep-18 11:12",
            "epoch_date_close_approach": 3241422720000,
            "relative_velocity": {
                "kilometers_per_second": "20.1034426672",
                "kilometers_per_hour": "72372.3936019106",
                "miles_per_hour": "44969.3909022539"
            },
            "miss_distance": {
                "astronomical": "0.3094147435",
                "lunar": "120.3623352215",
                "kilometers": "46287786.574196345",
                "miles": "28761896.870325761"
            },
            "orbiting_body": "Earth"
        },
        {
            "close_approach_date": "2152-06-04",
            "close_approach_date_full": "2152-Jun-04 12:00",
            "epoch_date_close_approach": 5756788800000,
            "relative_velocity": {
                "kilometers_per_second": "13.3492812425",
                "kilometers_per_hour": "48057.412473005",
                "miles_per_hour": "29861.0072113514"
            },
            "miss_distance": {
                "astronomical": "0.0862604725",
                "lunar": "33.5553238025",
                "kilometers": "12904382.951193575",
                "miles": "8018411.747178335"
            },
            "orbiting_body": "Earth"
        }
    ],
    "orbital_data": {
        "orbit_id": "6",
        "orbit_determination_date": "2020-04-17 06:28:53",
        "first_observation_date": "2019-08-21",
        "last_observation_date": "2019-09-04",
        "data_arc_in_days": 14,
        "observations_used": 28,
        "orbit_uncertainty": "7",
        "minimum_orbit_intersection": ".00353696",
        "jupiter_tisserand_invariant": "3.223",
        "epoch_osculation": "2459000.5",
        "eccentricity": ".6050881262894408",
        "semi_major_axis": "2.438186265886762",
        "inclination": "2.197522604594754",
        "ascending_node_longitude": "150.7687084935685",
        "orbital_period": "1390.588865843783",
        "perihelion_distance": ".9628687067166929",
        "perihelion_argument": "145.3512186196143",
        "aphelion_distance": "3.913503825056831",
        "perihelion_time": "2458691.998503223606",
        "mean_anomaly": "79.86583350939786",
        "mean_motion": ".2588831313427487",
        "equinox": "J2000",
        "orbit_class": {
            "orbit_class_type": "APO",
            "orbit_class_description": "Near-Earth asteroid orbits which cross the Earth’s orbit similar to that of 1862 Apollo",
            "orbit_class_range": "a (semi-major axis) > 1.0 AU; q (perihelion) < 1.017 AU"
        }
    },
    "is_sentry_object": false
}